[{"OBJECT_NAME":"STARLINK-1568","OBJECT_ID":"2020-055BF","EPOCH":"2026-03-09T07:11:52.075392","MEAN_MOTION":15.46537156,"ECCENTRICITY":0.00059127,"INCLINATION":53.0625,"RA_OF_ASC_NODE":34.8379,"ARG_OF_PERICENTER":113.1851,"MEAN_ANOMALY":246.9779,"EPHEMERIS_TYPE":0,"CLASSIFICATION_TYPE":"U","NORAD_CAT_ID":46080,"ELEMENT_SET_NO":999,"REV_AT_EPOCH":31013,"BSTAR":0.0010677195,"MEAN_MOTION_DOT":0.00053888,"MEAN_MOTION_DDOT":0},{"OBJECT_NAME":"STARLINK-36751","OBJECT_ID":"2026-026J","EPOCH":"2026-03-09T22:00:01.999584","MEAN_MOTION":15.47731113,"ECCENTRICITY":0.00019784,"INCLINATION":97.2848,"RA_OF_ASC_NODE":123.4812,"ARG_OF_PERICENTER":62.4737,"MEAN_ANOMALY":103.0444,"EPHEMERIS_TYPE":0,"CLASSIFICATION_TYPE":"U","NORAD_CAT_ID":67729,"ELEMENT_SET_NO":999,"REV_AT_EPOCH":535,"BSTAR":-0.042164217,"MEAN_MOTION_DOT":-0.01953188,"MEAN_MOTION_DDOT":0}]
